IRIDIUM 179
1 56730U 23068W   24154.06597178  .00000600  00000-0  75392-4 0  9995
2 56730  86.6787 343.3381 0002130  75.6782 284.4676 14.80272208 56148

IRIDIUM 178
1 56729U 23068V   24154.47728178  .00000642  00000-0  81118-4 0  9993
2 56729  86.5773 339.2187 0002054  81.2330 278.9124 14.80208184 56200